ONEWEB-0593             
1 54659U 22166T   26066.06944508  .00000062  00000+0  11934-3 0  9990
2 54659  87.9165 264.3406 0001445  94.4095 265.7204 13.21827040158050
ONEWEB-0594             
1 54660U 22166U   26066.01347774 -.00000063  00000+0 -18510-3 0  9999
2 54660  87.9163 264.3697 0001653  94.8627 265.2696 13.21827331158062
ONEWEB-0595             
1 54661U 22166V   26066.06614262  .00000025  00000+0  29986-4 0  9990
2 54661  87.9169 264.3319 0001792  90.5306 269.6033 13.21828070158043
ONEWEB-0596             
1 54662U 22166W   26066.03981362  .00000093  00000+0  19294-3 0  9991
2 54662  87.9166 264.3548 0001667  88.6726 271.4599 13.21824001158048
ONEWEB-0597             
1 54663U 22166X   26066.09742240  .00000120  00000+0  25874-3 0  9990
2 54663  87.9163 264.3482 0001459  88.8954 271.2347 13.21827139158052
ONEWEB-0600             
1 54664U 22166Y   26066.00361254  .00000016  00000+0  70231-5 0  9997
2 54664  87.9163 264.3582 0001495  99.8765 260.2538 13.21824076158019
ONEWEB-0601             
1 54665U 22166Z   26066.07109529  .00000033  00000+0  48718-4 0  9993
2 54665  87.9162 264.3619 0001304  85.7576 274.3707 13.21826782158215
ONEWEB-0602             
1 54666U 22166AA  26066.11140017  .00000072  00000+0  14313-3 0  9992
2 54666  87.9165 264.3595 0001443 102.3097 257.8199 13.21824238158068
ONEWEB-0603             
1 54667U 22166AB  26066.04145755 -.00000024  00000+0 -89233-4 0  9992
2 54667  87.9173 264.3192 0001413  89.6327 270.4969 13.21825289157984
ONEWEB-0604             
1 54668U 22166AC  26066.02994036 -.00000134  00000+0 -35498-3 0  9990
2 54668  87.9178 264.3358 0001662  92.7076 267.4248 13.21825428157943
ONEWEB-0605             
1 54669U 22166AD  26066.09905507  .00000109  00000+0  23242-3 0  9997
2 54669  87.9166 264.3456 0001368  68.5039 291.6240 13.21824763158025
ONEWEB-0606             
1 54670U 22166AE  26066.04476387  .00000142  00000+0  31215-3 0  9999
2 54670  87.9166 264.3698 0001758  89.8895 270.2440 13.21827120158074
ONEWEB-0607             
1 54671U 22166AF  26066.08755675 -.00000018  00000+0 -74961-4 0  9994
2 54671  87.9171 264.3252 0001427  89.9417 270.1880 13.21826600158058
ONEWEB-0608             
1 54672U 22166AG  26066.09411812  .00000039  00000+0  64004-4 0  9996
2 54672  87.9174 264.3177 0001163  77.1171 283.0092 13.21827675158063
ONEWEB-0610             
1 54673U 22166AH  26066.07436554 -.00000057  00000+0 -17011-3 0  9992
2 54673  87.9163 264.3464 0000959  80.1211 280.0032 13.21826705157964
ONEWEB-0611             
1 54674U 22166AJ  26066.06780112 -.00000016  00000+0 -69808-4 0  9991
2 54674  87.9165 264.3443 0001707  94.2867 265.8462 13.21828647157953
ONEWEB-0612             
1 54675U 22166AK  26066.08097325 -.00000012  00000+0 -61769-4 0  9995
2 54675  87.9174 264.3257 0001453  90.1980 269.9320 13.21826777157945
