[{"OBJECT_NAME":"ONEWEB-0593","OBJECT_ID":"2022-166T","EPOCH":"2026-03-07T01:40:00.054912","MEAN_MOTION":13.2182704,"ECCENTRICITY":0.0001445,"INCLINATION":87.9165,"RA_OF_ASC_NODE":264.3406,"ARG_OF_PERICENTER":94.4095,"MEAN_ANOMALY":265.7204,"EPHEMERIS_TYPE":0,"CLASSIFICATION_TYPE":"U","NORAD_CAT_ID":54659,"ELEMENT_SET_NO":999,"REV_AT_EPOCH":15805,"BSTAR":0.00011934,"MEAN_MOTION_DOT":6.2e-7,"MEAN_MOTION_DDOT":0},{"OBJECT_NAME":"ONEWEB-0594","OBJECT_ID":"2022-166U","EPOCH":"2026-03-07T00:19:24.476736","MEAN_MOTION":13.21827331,"ECCENTRICITY":0.0001653,"INCLINATION":87.9163,"RA_OF_ASC_NODE":264.3697,"ARG_OF_PERICENTER":94.8627,"MEAN_ANOMALY":265.2696,"EPHEMERIS_TYPE":0,"CLASSIFICATION_TYPE":"U","NORAD_CAT_ID":54660,"ELEMENT_SET_NO":999,"REV_AT_EPOCH":15806,"BSTAR":-0.0001851,"MEAN_MOTION_DOT":-6.3e-7,"MEAN_MOTION_DDOT":0},{"OBJECT_NAME":"ONEWEB-0595","OBJECT_ID":"2022-166V","EPOCH":"2026-03-07T01:35:14.722368","MEAN_MOTION":13.2182807,"ECCENTRICITY":0.0001792,"INCLINATION":87.9169,"RA_OF_ASC_NODE":264.3319,"ARG_OF_PERICENTER":90.5306,"MEAN_ANOMALY":269.6033,"EPHEMERIS_TYPE":0,"CLASSIFICATION_TYPE":"U","NORAD_CAT_ID":54661,"ELEMENT_SET_NO":999,"REV_AT_EPOCH":15804,"BSTAR":2.9986e-5,"MEAN_MOTION_DOT":2.5e-7,"MEAN_MOTION_DDOT":0},{"OBJECT_NAME":"ONEWEB-0596","OBJECT_ID":"2022-166W","EPOCH":"2026-03-07T00:57:19.896768","MEAN_MOTION":13.21824001,"ECCENTRICITY":0.0001667,"INCLINATION":87.9166,"RA_OF_ASC_NODE":264.3548,"ARG_OF_PERICENTER":88.6726,"MEAN_ANOMALY":271.4599,"EPHEMERIS_TYPE":0,"CLASSIFICATION_TYPE":"U","NORAD_CAT_ID":54662,"ELEMENT_SET_NO":999,"REV_AT_EPOCH":15804,"BSTAR":0.00019294,"MEAN_MOTION_DOT":9.3e-7,"MEAN_MOTION_DDOT":0},{"OBJECT_NAME":"ONEWEB-0597","OBJECT_ID":"2022-166X","EPOCH":"2026-03-07T02:20:17.295360","MEAN_MOTION":13.21827139,"ECCENTRICITY":0.0001459,"INCLINATION":87.9163,"RA_OF_ASC_NODE":264.3482,"ARG_OF_PERICENTER":88.8954,"MEAN_ANOMALY":271.2347,"EPHEMERIS_TYPE":0,"CLASSIFICATION_TYPE":"U","NORAD_CAT_ID":54663,"ELEMENT_SET_NO":999,"REV_AT_EPOCH":15805,"BSTAR":0.00025874,"MEAN_MOTION_DOT":1.2e-6,"MEAN_MOTION_DDOT":0},{"OBJECT_NAME":"ONEWEB-0600","OBJECT_ID":"2022-166Y","EPOCH":"2026-03-07T00:05:12.123456","MEAN_MOTION":13.21824076,"ECCENTRICITY":0.0001495,"INCLINATION":87.9163,"RA_OF_ASC_NODE":264.3582,"ARG_OF_PERICENTER":99.8765,"MEAN_ANOMALY":260.2538,"EPHEMERIS_TYPE":0,"CLASSIFICATION_TYPE":"U","NORAD_CAT_ID":54664,"ELEMENT_SET_NO":999,"REV_AT_EPOCH":15801,"BSTAR":7.0231e-6,"MEAN_MOTION_DOT":1.6e-7,"MEAN_MOTION_DDOT":0},{"OBJECT_NAME":"ONEWEB-0601","OBJECT_ID":"2022-166Z","EPOCH":"2026-03-07T01:42:22.633056","MEAN_MOTION":13.21826782,"ECCENTRICITY":0.0001304,"INCLINATION":87.9162,"RA_OF_ASC_NODE":264.3619,"ARG_OF_PERICENTER":85.7576,"MEAN_ANOMALY":274.3707,"EPHEMERIS_TYPE":0,"CLASSIFICATION_TYPE":"U","NORAD_CAT_ID":54665,"ELEMENT_SET_NO":999,"REV_AT_EPOCH":15821,"BSTAR":4.8718e-5,"MEAN_MOTION_DOT":3.3e-7,"MEAN_MOTION_DDOT":0},{"OBJECT_NAME":"ONEWEB-0602","OBJECT_ID":"2022-166AA","EPOCH":"2026-03-07T02:40:24.974688","MEAN_MOTION":13.21824238,"ECCENTRICITY":0.0001443,"INCLINATION":87.9165,"RA_OF_ASC_NODE":264.3595,"ARG_OF_PERICENTER":102.3097,"MEAN_ANOMALY":257.8199,"EPHEMERIS_TYPE":0,"CLASSIFICATION_TYPE":"U","NORAD_CAT_ID":54666,"ELEMENT_SET_NO":999,"REV_AT_EPOCH":15806,"BSTAR":0.00014313,"MEAN_MOTION_DOT":7.2e-7,"MEAN_MOTION_DDOT":0},{"OBJECT_NAME":"ONEWEB-0603","OBJECT_ID":"2022-166AB","EPOCH":"2026-03-07T00:59:41.932320","MEAN_MOTION":13.21825289,"ECCENTRICITY":0.0001413,"INCLINATION":87.9173,"RA_OF_ASC_NODE":264.3192,"ARG_OF_PERICENTER":89.6327,"MEAN_ANOMALY":270.4969,"EPHEMERIS_TYPE":0,"CLASSIFICATION_TYPE":"U","NORAD_CAT_ID":54667,"ELEMENT_SET_NO":999,"REV_AT_EPOCH":15798,"BSTAR":-8.9233e-5,"MEAN_MOTION_DOT":-2.4e-7,"MEAN_MOTION_DDOT":0},{"OBJECT_NAME":"ONEWEB-0604","OBJECT_ID":"2022-166AC","EPOCH":"2026-03-07T00:43:06.847104","MEAN_MOTION":13.21825428,"ECCENTRICITY":0.0001662,"INCLINATION":87.9178,"RA_OF_ASC_NODE":264.3358,"ARG_OF_PERICENTER":92.7076,"MEAN_ANOMALY":267.4248,"EPHEMERIS_TYPE":0,"CLASSIFICATION_TYPE":"U","NORAD_CAT_ID":54668,"ELEMENT_SET_NO":999,"REV_AT_EPOCH":15794,"BSTAR":-0.00035498,"MEAN_MOTION_DOT":-1.34e-6,"MEAN_MOTION_DDOT":0},{"OBJECT_NAME":"ONEWEB-0605","OBJECT_ID":"2022-166AD","EPOCH":"2026-03-07T02:22:38.358048","MEAN_MOTION":13.21824763,"ECCENTRICITY":0.0001368,"INCLINATION":87.9166,"RA_OF_ASC_NODE":264.3456,"ARG_OF_PERICENTER":68.5039,"MEAN_ANOMALY":291.624,"EPHEMERIS_TYPE":0,"CLASSIFICATION_TYPE":"U","NORAD_CAT_ID":54669,"ELEMENT_SET_NO":999,"REV_AT_EPOCH":15802,"BSTAR":0.00023242,"MEAN_MOTION_DOT":1.09e-6,"MEAN_MOTION_DDOT":0},{"OBJECT_NAME":"ONEWEB-0606","OBJECT_ID":"2022-166AE","EPOCH":"2026-03-07T01:04:27.598368","MEAN_MOTION":13.2182712,"ECCENTRICITY":0.0001758,"INCLINATION":87.9166,"RA_OF_ASC_NODE":264.3698,"ARG_OF_PERICENTER":89.8895,"MEAN_ANOMALY":270.244,"EPHEMERIS_TYPE":0,"CLASSIFICATION_TYPE":"U","NORAD_CAT_ID":54670,"ELEMENT_SET_NO":999,"REV_AT_EPOCH":15807,"BSTAR":0.00031215,"MEAN_MOTION_DOT":1.42e-6,"MEAN_MOTION_DDOT":0},{"OBJECT_NAME":"ONEWEB-0607","OBJECT_ID":"2022-166AF","EPOCH":"2026-03-07T02:06:04.903200","MEAN_MOTION":13.218266,"ECCENTRICITY":0.0001427,"INCLINATION":87.9171,"RA_OF_ASC_NODE":264.3252,"ARG_OF_PERICENTER":89.9417,"MEAN_ANOMALY":270.188,"EPHEMERIS_TYPE":0,"CLASSIFICATION_TYPE":"U","NORAD_CAT_ID":54671,"ELEMENT_SET_NO":999,"REV_AT_EPOCH":15805,"BSTAR":-7.4961e-5,"MEAN_MOTION_DOT":-1.8e-7,"MEAN_MOTION_DDOT":0},{"OBJECT_NAME":"ONEWEB-0608","OBJECT_ID":"2022-166AG","EPOCH":"2026-03-07T02:15:31.805568","MEAN_MOTION":13.21827675,"ECCENTRICITY":0.0001163,"INCLINATION":87.9174,"RA_OF_ASC_NODE":264.3177,"ARG_OF_PERICENTER":77.1171,"MEAN_ANOMALY":283.0092,"EPHEMERIS_TYPE":0,"CLASSIFICATION_TYPE":"U","NORAD_CAT_ID":54672,"ELEMENT_SET_NO":999,"REV_AT_EPOCH":15806,"BSTAR":6.4004e-5,"MEAN_MOTION_DOT":3.9e-7,"MEAN_MOTION_DDOT":0},{"OBJECT_NAME":"ONEWEB-0610","OBJECT_ID":"2022-166AH","EPOCH":"2026-03-07T01:47:05.182656","MEAN_MOTION":13.21826705,"ECCENTRICITY":9.59e-5,"INCLINATION":87.9163,"RA_OF_ASC_NODE":264.3464,"ARG_OF_PERICENTER":80.1211,"MEAN_ANOMALY":280.0032,"EPHEMERIS_TYPE":0,"CLASSIFICATION_TYPE":"U","NORAD_CAT_ID":54673,"ELEMENT_SET_NO":999,"REV_AT_EPOCH":15796,"BSTAR":-0.00017011,"MEAN_MOTION_DOT":-5.7e-7,"MEAN_MOTION_DDOT":0},{"OBJECT_NAME":"ONEWEB-0611","OBJECT_ID":"2022-166AJ","EPOCH":"2026-03-07T01:37:38.016768","MEAN_MOTION":13.21828647,"ECCENTRICITY":0.0001707,"INCLINATION":87.9165,"RA_OF_ASC_NODE":264.3443,"ARG_OF_PERICENTER":94.2867,"MEAN_ANOMALY":265.8462,"EPHEMERIS_TYPE":0,"CLASSIFICATION_TYPE":"U","NORAD_CAT_ID":54674,"ELEMENT_SET_NO":999,"REV_AT_EPOCH":15795,"BSTAR":-6.9808e-5,"MEAN_MOTION_DOT":-1.6e-7,"MEAN_MOTION_DDOT":0},{"OBJECT_NAME":"ONEWEB-0612","OBJECT_ID":"2022-166AK","EPOCH":"2026-03-07T01:56:36.088800","MEAN_MOTION":13.21826777,"ECCENTRICITY":0.0001453,"INCLINATION":87.9174,"RA_OF_ASC_NODE":264.3257,"ARG_OF_PERICENTER":90.198,"MEAN_ANOMALY":269.932,"EPHEMERIS_TYPE":0,"CLASSIFICATION_TYPE":"U","NORAD_CAT_ID":54675,"ELEMENT_SET_NO":999,"REV_AT_EPOCH":15794,"BSTAR":-6.1769e-5,"MEAN_MOTION_DOT":-1.2e-7,"MEAN_MOTION_DDOT":0}]
